{
  "type": "FeatureCollection",
  "features": [
    {
      "type": "Feature",
      "properties": {
        "norad_id": 66546,
        "name": "SHIJIAN-30B",
        "group": "last-30-days",
        "lat": 31.37301908828151,
        "lon": 126.12804408274367,
        "alt_km": 521.3317325610606,
        "timestamp": "2025-12-12T07:43:19.257811+00:00",
        "meta_object_name": "SHIJIAN-30B",
        "meta_object_id": "2025-266B",
        "meta_epoch": "2025-12-11T23:12:01.445760",
        "meta_mean_motion": 15.15383065,
        "meta_eccentricity": 0.00104668,
        "meta_inclination": 51.7965,
        "meta_ra_of_asc_node": 336.4918,
        "meta_arg_of_pericenter": 356.7225,
        "meta_mean_anomaly": 3.3681,
        "meta_ephemeris_type": 0,
        "meta_classification_type": "U",
        "meta_norad_cat_id": 66546,
        "meta_element_set_no": 999,
        "meta_rev_at_epoch": 346,
        "meta_bstar": 0.00097473372,
        "meta_mean_motion_dot": 0.00018391,
        "meta_mean_motion_ddot": 0,
        "tle_line1": "1 66546U 25266B   25345.96668340  .00018391  00000+0  97473-3 0  9993",
        "tle_line2": "2 66546  51.7965 336.4918 0010466 356.7225   3.3681 15.15383065  3464"
      },
      "geometry": {
        "type": "Point",
        "coordinates": [
          126.12804408274367,
          31.37301908828151
        ]
      }
    },
    {
      "type": "Feature",
      "properties": {
        "norad_id": 66547,
        "name": "SHIJIAN-30C",
        "group": "last-30-days",
        "lat": 32.81581731704622,
        "lon": 124.3138680220083,
        "alt_km": 521.7757342165969,
        "timestamp": "2025-12-12T07:43:19.257821+00:00",
        "meta_object_name": "SHIJIAN-30C",
        "meta_object_id": "2025-266C",
        "meta_epoch": "2025-12-11T23:12:36.522432",
        "meta_mean_motion": 15.15487068,
        "meta_eccentricity": 0.0011348,
        "meta_inclination": 51.7975,
        "meta_ra_of_asc_node": 336.4961,
        "meta_arg_of_pericenter": 348.2128,
        "meta_mean_anomaly": 11.8581,
        "meta_ephemeris_type": 0,
        "meta_classification_type": "U",
        "meta_norad_cat_id": 66547,
        "meta_element_set_no": 999,
        "meta_rev_at_epoch": 346,
        "meta_bstar": 0.00086741869,
        "meta_mean_motion_dot": 0.0001638,
        "meta_mean_motion_ddot": 0,
        "tle_line1": "1 66547U 25266C   25345.96708938  .00016380  00000+0  86742-3 0  9995",
        "tle_line2": "2 66547  51.7975 336.4961 0011348 348.2128  11.8581 15.15487068  3463"
      },
      "geometry": {
        "type": "Point",
        "coordinates": [
          124.3138680220083,
          32.81581731704622
        ]
      }
    },
    {
      "type": "Feature",
      "properties": {
        "norad_id": 66548,
        "name": "CZ-2C R/B",
        "group": "last-30-days",
        "lat": -50.477177066184424,
        "lon": -135.6821253806389,
        "alt_km": 475.95911818002514,
        "timestamp": "2025-12-12T07:43:19.257834+00:00",
        "meta_object_name": "CZ-2C R/B",
        "meta_object_id": "2025-266D",
        "meta_epoch": "2025-12-12T00:20:01.693536",
        "meta_mean_motion": 15.30153637,
        "meta_eccentricity": 0.00839413,
        "meta_inclination": 52.0554,
        "meta_ra_of_asc_node": 334.738,
        "meta_arg_of_pericenter": 170.5041,
        "meta_mean_anomaly": 189.7556,
        "meta_ephemeris_type": 0,
        "meta_classification_type": "U",
        "meta_norad_cat_id": 66548,
        "meta_element_set_no": 999,
        "meta_rev_at_epoch": 350,
        "meta_bstar": 0.00046721007,
        "meta_mean_motion_dot": 0.00015035,
        "meta_mean_motion_ddot": 0,
        "tle_line1": "1 66548U 25266D   25346.01390849  .00015035  00000+0  46721-3 0  9990",
        "tle_line2": "2 66548  52.0554 334.7380 0083941 170.5041 189.7556 15.30153637  3506"
      },
      "geometry": {
        "type": "Point",
        "coordinates": [
          -135.6821253806389,
          -50.477177066184424
        ]
      }
    },
    {
      "type": "Feature",
      "properties": {
        "norad_id": 66549,
        "name": "SHIJIAN-28",
        "group": "last-30-days",
        "lat": -17.116318181137327,
        "lon": -178.8925687634069,
        "alt_km": 678.4692880014827,
        "timestamp": "2025-12-12T07:43:19.257845+00:00",
        "meta_object_name": "SHIJIAN-28",
        "meta_object_id": "2025-277A",
        "meta_epoch": "2025-12-11T21:50:26.664576",
        "meta_mean_motion": 14.45036477,
        "meta_eccentricity": 0.0226533,
        "meta_inclination": 66.663,
        "meta_ra_of_asc_node": 189.8532,
        "meta_arg_of_pericenter": 275.2622,
        "meta_mean_anomaly": 82.2673,
        "meta_ephemeris_type": 0,
        "meta_classification_type": "U",
        "meta_norad_cat_id": 66549,
        "meta_element_set_no": 999,
        "meta_rev_at_epoch": 42374,
        "meta_bstar": 0.00018715,
        "meta_mean_motion_dot": 7.83e-06,
        "meta_mean_motion_ddot": 0,
        "tle_line1": "1 66549U 25277A   25345.91003084  .00000783  00000+0  18715-3 0  9999",
        "tle_line2": "2 66549  66.6630 189.8532 0226533 275.2622  82.2673 14.45036477423741"
      },
      "geometry": {
        "type": "Point",
        "coordinates": [
          -178.8925687634069,
          -17.116318181137327
        ]
      }
    },
    {
      "type": "Feature",
      "properties": {
        "norad_id": 66550,
        "name": "CZ-7A R/B",
        "group": "last-30-days",
        "lat": 3.7263376834153714,
        "lon": -75.19831025240963,
        "alt_km": 30330.35706878163,
        "timestamp": "2025-12-12T07:43:19.257857+00:00",
        "meta_object_name": "CZ-7A R/B",
        "meta_object_id": "2025-277B",
        "meta_epoch": "2025-12-11T12:15:39.945600",
        "meta_mean_motion": 2.65298958,
        "meta_eccentricity": 0.70570413,
        "meta_inclination": 14.4036,
        "meta_ra_of_asc_node": 270.5234,
        "meta_arg_of_pericenter": 187.6434,
        "meta_mean_anomaly": 149.2328,
        "meta_ephemeris_type": 0,
        "meta_classification_type": "U",
        "meta_norad_cat_id": 66550,
        "meta_element_set_no": 999,
        "meta_rev_at_epoch": 31,
        "meta_bstar": 0.0010583352,
        "meta_mean_motion_dot": 0.01545385,
        "meta_mean_motion_ddot": 2.47923e-06,
        "tle_line1": "1 66550U 25277B   25345.51087900  .01545385  24792-5  10583-2 0  9993",
        "tle_line2": "2 66550  14.4036 270.5234 7057041 187.6434 149.2328  2.65298958   319"
      },
      "geometry": {
        "type": "Point",
        "coordinates": [
          -75.19831025240963,
          3.7263376834153714
        ]
      }
    },
    {
      "type": "Feature",
      "properties": {
        "norad_id": 66551,
        "name": "USA 568",
        "group": "last-30-days",
        "lat": 40.46011973777268,
        "lon": -130.94594327104647,
        "alt_km": 232.1963013218001,
        "timestamp": "2025-12-12T07:43:19.257868+00:00",
        "meta_object_name": "USA 568",
        "meta_object_id": "2024-134K",
        "meta_epoch": "2025-12-02T16:00:03.000096",
        "meta_mean_motion": 15.87051116,
        "meta_eccentricity": 7.17e-05,
        "meta_inclination": 53.1571,
        "meta_ra_of_asc_node": 236.7807,
        "meta_arg_of_pericenter": 110.7411,
        "meta_mean_anomaly": 313.9012,
        "meta_ephemeris_type": 0,
        "meta_classification_type": "U",
        "meta_norad_cat_id": 66551,
        "meta_element_set_no": 999,
        "meta_rev_at_epoch": 262,
        "meta_bstar": -0.0074303,
        "meta_mean_motion_dot": -0.01709685,
        "meta_mean_motion_ddot": 0,
        "tle_line1": "1 66551U 24134K   25336.66670139 -.01709685  00000+0 -74303-2 0  9990",
        "tle_line2": "2 66551  53.1571 236.7807 0000717 110.7411 313.9012 15.87051116  2624"
      },
      "geometry": {
        "type": "Point",
        "coordinates": [
          -130.94594327104647,
          40.46011973777268
        ]
      }
    },
    {
      "type": "Feature",
      "properties": {
        "norad_id": 66554,
        "name": "GLOBAL-33",
        "group": "last-30-days",
        "lat": -41.94557736135089,
        "lon": -27.01767156584903,
        "alt_km": 476.3855597637603,
        "timestamp": "2025-12-12T07:43:19.257879+00:00",
        "meta_object_name": "GLOBAL-33",
        "meta_object_id": "2025-267A",
        "meta_epoch": "2025-12-11T14:53:12.552288",
        "meta_mean_motion": 15.31613043,
        "meta_eccentricity": 0.00043712,
        "meta_inclination": 42.0212,
        "meta_ra_of_asc_node": 63.4559,
        "meta_arg_of_pericenter": 46.3547,
        "meta_mean_anomaly": 313.7652,
        "meta_ephemeris_type": 0,
        "meta_classification_type": "U",
        "meta_norad_cat_id": 66554,
        "meta_element_set_no": 999,
        "meta_rev_at_epoch": 323,
        "meta_bstar": 0.00061477883,
        "meta_mean_motion_dot": 0.00018974,
        "meta_mean_motion_ddot": 0,
        "tle_line1": "1 66554U 25267A   25345.62028417  .00018974  00000+0  61478-3 0  9994",
        "tle_line2": "2 66554  42.0212  63.4559 0004371  46.3547 313.7652 15.31613043  3237"
      },
      "geometry": {
        "type": "Point",
        "coordinates": [
          -27.01767156584903,
          -41.94557736135089
        ]
      }
    }
  ]
}